GLOBALSTAR M024         
1 25883U 99043A   26013.10639835 -.00000027  00000+0  13453-2 0  9995
2 25883  52.0004 266.9729 0002450  71.5026 100.5320 11.10166056138170
GLOBALSTAR M027         
1 25884U 99043B   26013.39426420 -.00000074  00000+0 -40794-3 0  9993
2 25884  52.0247 350.2582 0021448 331.2490  28.7120 11.04372660164466
GLOBALSTAR M054         
1 25885U 99043C   26013.43240734 -.00000101  00000+0 -74681-3 0  9994
2 25885  52.0149  82.1872 0005280 174.8439 198.3042 11.39224421143015
GLOBALSTAR M053         
1 25886U 99043D   26013.53445367 -.00000063  00000+0  17070-3 0  9990
2 25886  52.0002  40.7085 0003475  84.8648  85.1768 11.27669186143179
GLOBALSTAR M058         
1 25907U 99049A   26013.40462080 -.00000063  00000+0  28497-3 0  9992
2 25907  51.9937 267.8369 0001909 340.3197  19.7564 11.93206850566639
GLOBALSTAR M050         
1 25908U 99049B   26013.41989939  .00000004  00000+0  10406-2 0  9995
2 25908  51.9981 259.7651 0010011  88.1583  83.4257 12.07463494173583
GLOBALSTAR M033         
1 25909U 99049C   26013.52926234 -.00000061  00000+0  29049-3 0  9995
2 25909  51.9911 116.7673 0013611 339.6205  20.4098 12.20297383561422
GLOBALSTAR M055         
1 25910U 99049D   26013.58026261 -.00000095  00000+0 -59761-5 0  9998
2 25910  52.0020 117.1242 0007073 201.2872 158.7686 12.29439195194162
